AQUA                    
1 27424U 02022A   26082.51867096  .00000999  00000+0  20914-3 0  9990
2 27424  98.4198  50.1379 0000924 116.4875 352.9910 14.62007347270756
CZ-4B R/B               
1 27432U 02024C   26082.43129482  .00000026  00000+0  36507-4 0  9999
2 27432  98.8809 135.7670 0049772 345.1974  25.2208 14.14549990231183
MIDORI II (ADEOS-II)    
1 27597U 02056A   26082.31457293  .00000318  00000+0  14261-3 0  9993
2 27597  98.7793  40.8883 0001020  27.5476 332.5759 14.29295007212244
H-2A R/B                
1 27601U 02056E   26082.39589971  .00000296  00000+0  11776-3 0  9999
2 27601  98.3227  42.2416 0071201 120.2263 354.4151 14.33769413216075
CZ-4B R/B               
1 28059U 03049C   26082.41212020  .00000377  00000+0  97989-4 0  9992
2 28059  98.6892  77.8567 0047952 188.4641 171.5751 14.55032233188593
CZ-2C R/B               
1 28222U 04012C   26082.16168299  .00068475  00000+0  66163-3 0  9997
2 28222  97.7190 148.7447 0012995 254.6258 105.3565 15.66134257206388
SL-16 R/B               
1 28353U 04021B   26082.31669515 -.00000031  00000+0  84170-5 0  9991
2 28353  71.0002 203.8949 0004703 353.0213   7.0843 14.14593337124761
CZ-4B R/B               
1 28415U 04035C   26082.51998241  .00008274  00000+0  28987-3 0  9996
2 28415  97.3474 116.5973 0030038 279.9469  79.8382 15.29298722182025
CZ-2C R/B               
1 28480U 04046B   26082.50927265  .00000143  00000+0  67859-4 0  9996
2 28480  98.1977 356.6324 0140481 113.8111 247.7870 14.26996751110476
ARIANE 5 R/B            
1 28499U 04049H   26082.44304270  .00000824  00000+0  97436-4 0  9997
2 28499  98.2647 251.4169 0083084 307.0149  52.3482 14.85289583147835
CZ-2D R/B               
1 28738U 05024B   26082.49373640  .00035837  00000+0  42085-3 0  9990
2 28738  97.3585  98.1590 0003371   5.4009 354.7284 15.61387766141932
ALOS (DAICHI)           
1 28931U 06002A   26082.32232931  .00001413  00000+0  24465-3 0  9996
2 28931  98.1241  38.2116 0000708  93.7535 266.3751 14.69850614 75486
