CCSDS_OMM_VERS = 2.0
CREATION_DATE  = 
ORIGINATOR     = 

OBJECT_NAME    = AQUA
OBJECT_ID      = 2002-022A
CENTER_NAME    = EARTH
REF_FRAME      = TEME
TIME_SYSTEM    = UTC
MEAN_ELEMENT_THEORY = SGP/SGP4

EPOCH          = 2026-03-23T12:26:53.170944
MEAN_MOTION    = 14.62007347
ECCENTRICITY   = .0000924
INCLINATION    = 98.4198
RA_OF_ASC_NODE = 50.1379
ARG_OF_PERICENTER = 116.4875
MEAN_ANOMALY   = 352.9910

EPHEMERIS_TYPE = 0
CLASSIFICATION_TYPE = U
NORAD_CAT_ID   = 27424
ELEMENT_SET_NO = 999
REV_AT_EPOCH   = 27075
BSTAR          = .20914E-3
MEAN_MOTION_DOT = .999E-5
MEAN_MOTION_DDOT = 0

CCSDS_OMM_VERS = 2.0
CREATION_DATE  = 
ORIGINATOR     = 

OBJECT_NAME    = CZ-4B R/B
OBJECT_ID      = 2002-024C
CENTER_NAME    = EARTH
REF_FRAME      = TEME
TIME_SYSTEM    = UTC
MEAN_ELEMENT_THEORY = SGP/SGP4

EPOCH          = 2026-03-23T10:21:03.872448
MEAN_MOTION    = 14.14549990
ECCENTRICITY   = .0049772
INCLINATION    = 98.8809
RA_OF_ASC_NODE = 135.7670
ARG_OF_PERICENTER = 345.1974
MEAN_ANOMALY   = 25.2208

EPHEMERIS_TYPE = 0
CLASSIFICATION_TYPE = U
NORAD_CAT_ID   = 27432
ELEMENT_SET_NO = 999
REV_AT_EPOCH   = 23118
BSTAR          = .36507E-4
MEAN_MOTION_DOT = .26E-6
MEAN_MOTION_DDOT = 0

CCSDS_OMM_VERS = 2.0
CREATION_DATE  = 
ORIGINATOR     = 

OBJECT_NAME    = MIDORI II (ADEOS-II)
OBJECT_ID      = 2002-056A
CENTER_NAME    = EARTH
REF_FRAME      = TEME
TIME_SYSTEM    = UTC
MEAN_ELEMENT_THEORY = SGP/SGP4

EPOCH          = 2026-03-23T07:32:59.101152
MEAN_MOTION    = 14.29295007
ECCENTRICITY   = .000102
INCLINATION    = 98.7793
RA_OF_ASC_NODE = 40.8883
ARG_OF_PERICENTER = 27.5476
MEAN_ANOMALY   = 332.5759

EPHEMERIS_TYPE = 0
CLASSIFICATION_TYPE = U
NORAD_CAT_ID   = 27597
ELEMENT_SET_NO = 999
REV_AT_EPOCH   = 21224
BSTAR          = .14261E-3
MEAN_MOTION_DOT = .318E-5
MEAN_MOTION_DDOT = 0

CCSDS_OMM_VERS = 2.0
CREATION_DATE  = 
ORIGINATOR     = 

OBJECT_NAME    = H-2A R/B
OBJECT_ID      = 2002-056E
CENTER_NAME    = EARTH
REF_FRAME      = TEME
TIME_SYSTEM    = UTC
MEAN_ELEMENT_THEORY = SGP/SGP4

EPOCH          = 2026-03-23T09:30:05.734944
MEAN_MOTION    = 14.33769413
ECCENTRICITY   = .0071201
INCLINATION    = 98.3227
RA_OF_ASC_NODE = 42.2416
ARG_OF_PERICENTER = 120.2263
MEAN_ANOMALY   = 354.4151

EPHEMERIS_TYPE = 0
CLASSIFICATION_TYPE = U
NORAD_CAT_ID   = 27601
ELEMENT_SET_NO = 999
REV_AT_EPOCH   = 21607
BSTAR          = .11776E-3
MEAN_MOTION_DOT = .296E-5
MEAN_MOTION_DDOT = 0

CCSDS_OMM_VERS = 2.0
CREATION_DATE  = 
ORIGINATOR     = 

OBJECT_NAME    = CZ-4B R/B
OBJECT_ID      = 2003-049C
CENTER_NAME    = EARTH
REF_FRAME      = TEME
TIME_SYSTEM    = UTC
MEAN_ELEMENT_THEORY = SGP/SGP4

EPOCH          = 2026-03-23T09:53:27.185280
MEAN_MOTION    = 14.55032233
ECCENTRICITY   = .0047952
INCLINATION    = 98.6892
RA_OF_ASC_NODE = 77.8567
ARG_OF_PERICENTER = 188.4641
MEAN_ANOMALY   = 171.5751

EPHEMERIS_TYPE = 0
CLASSIFICATION_TYPE = U
NORAD_CAT_ID   = 28059
ELEMENT_SET_NO = 999
REV_AT_EPOCH   = 18859
BSTAR          = .97989E-4
MEAN_MOTION_DOT = .377E-5
MEAN_MOTION_DDOT = 0

CCSDS_OMM_VERS = 2.0
CREATION_DATE  = 
ORIGINATOR     = 

OBJECT_NAME    = CZ-2C R/B
OBJECT_ID      = 2004-012C
CENTER_NAME    = EARTH
REF_FRAME      = TEME
TIME_SYSTEM    = UTC
MEAN_ELEMENT_THEORY = SGP/SGP4

EPOCH          = 2026-03-23T03:52:49.410336
MEAN_MOTION    = 15.66134257
ECCENTRICITY   = .00129956
INCLINATION    = 97.7190
RA_OF_ASC_NODE = 148.7447
ARG_OF_PERICENTER = 254.6258
MEAN_ANOMALY   = 105.3565

EPHEMERIS_TYPE = 0
CLASSIFICATION_TYPE = U
NORAD_CAT_ID   = 28222
ELEMENT_SET_NO = 999
REV_AT_EPOCH   = 20638
BSTAR          = .66163001E-3
MEAN_MOTION_DOT = .68475E-3
MEAN_MOTION_DDOT = 0

CCSDS_OMM_VERS = 2.0
CREATION_DATE  = 
ORIGINATOR     = 

OBJECT_NAME    = SL-16 R/B
OBJECT_ID      = 2004-021B
CENTER_NAME    = EARTH
REF_FRAME      = TEME
TIME_SYSTEM    = UTC
MEAN_ELEMENT_THEORY = SGP/SGP4

EPOCH          = 2026-03-23T07:36:02.460960
MEAN_MOTION    = 14.14593337
ECCENTRICITY   = .0004703
INCLINATION    = 71.0002
RA_OF_ASC_NODE = 203.8949
ARG_OF_PERICENTER = 353.0213
MEAN_ANOMALY   = 7.0843

EPHEMERIS_TYPE = 0
CLASSIFICATION_TYPE = U
NORAD_CAT_ID   = 28353
ELEMENT_SET_NO = 999
REV_AT_EPOCH   = 12476
BSTAR          = .8417E-5
MEAN_MOTION_DOT = -.31E-6
MEAN_MOTION_DDOT = 0

CCSDS_OMM_VERS = 2.0
CREATION_DATE  = 
ORIGINATOR     = 

OBJECT_NAME    = CZ-4B R/B
OBJECT_ID      = 2004-035C
CENTER_NAME    = EARTH
REF_FRAME      = TEME
TIME_SYSTEM    = UTC
MEAN_ELEMENT_THEORY = SGP/SGP4

EPOCH          = 2026-03-23T12:28:46.480224
MEAN_MOTION    = 15.29298722
ECCENTRICITY   = .0030038
INCLINATION    = 97.3474
RA_OF_ASC_NODE = 116.5973
ARG_OF_PERICENTER = 279.9469
MEAN_ANOMALY   = 79.8382

EPHEMERIS_TYPE = 0
CLASSIFICATION_TYPE = U
NORAD_CAT_ID   = 28415
ELEMENT_SET_NO = 999
REV_AT_EPOCH   = 18202
BSTAR          = .28987E-3
MEAN_MOTION_DOT = .8274E-4
MEAN_MOTION_DDOT = 0

CCSDS_OMM_VERS = 2.0
CREATION_DATE  = 
ORIGINATOR     = 

OBJECT_NAME    = CZ-2C R/B
OBJECT_ID      = 2004-046B
CENTER_NAME    = EARTH
REF_FRAME      = TEME
TIME_SYSTEM    = UTC
MEAN_ELEMENT_THEORY = SGP/SGP4

EPOCH          = 2026-03-23T12:13:21.156960
MEAN_MOTION    = 14.26996751
ECCENTRICITY   = .0140481
INCLINATION    = 98.1977
RA_OF_ASC_NODE = 356.6324
ARG_OF_PERICENTER = 113.8111
MEAN_ANOMALY   = 247.7870

EPHEMERIS_TYPE = 0
CLASSIFICATION_TYPE = U
NORAD_CAT_ID   = 28480
ELEMENT_SET_NO = 999
REV_AT_EPOCH   = 11047
BSTAR          = .67859E-4
MEAN_MOTION_DOT = .143E-5
MEAN_MOTION_DDOT = 0

CCSDS_OMM_VERS = 2.0
CREATION_DATE  = 
ORIGINATOR     = 

OBJECT_NAME    = ARIANE 5 R/B
OBJECT_ID      = 2004-049H
CENTER_NAME    = EARTH
REF_FRAME      = TEME
TIME_SYSTEM    = UTC
MEAN_ELEMENT_THEORY = SGP/SGP4

EPOCH          = 2026-03-23T10:37:58.889280
MEAN_MOTION    = 14.85289583
ECCENTRICITY   = .0083084
INCLINATION    = 98.2647
RA_OF_ASC_NODE = 251.4169
ARG_OF_PERICENTER = 307.0149
MEAN_ANOMALY   = 52.3482

EPHEMERIS_TYPE = 0
CLASSIFICATION_TYPE = U
NORAD_CAT_ID   = 28499
ELEMENT_SET_NO = 999
REV_AT_EPOCH   = 14783
BSTAR          = .97436E-4
MEAN_MOTION_DOT = .824E-5
MEAN_MOTION_DDOT = 0

CCSDS_OMM_VERS = 2.0
CREATION_DATE  = 
ORIGINATOR     = 

OBJECT_NAME    = CZ-2D R/B
OBJECT_ID      = 2005-024B
CENTER_NAME    = EARTH
REF_FRAME      = TEME
TIME_SYSTEM    = UTC
MEAN_ELEMENT_THEORY = SGP/SGP4

EPOCH          = 2026-03-23T11:50:58.824960
MEAN_MOTION    = 15.61387766
ECCENTRICITY   = .0003371
INCLINATION    = 97.3585
RA_OF_ASC_NODE = 98.1590
ARG_OF_PERICENTER = 5.4009
MEAN_ANOMALY   = 354.7284

EPHEMERIS_TYPE = 0
CLASSIFICATION_TYPE = U
NORAD_CAT_ID   = 28738
ELEMENT_SET_NO = 999
REV_AT_EPOCH   = 14193
BSTAR          = .42085E-3
MEAN_MOTION_DOT = .35837E-3
MEAN_MOTION_DDOT = 0

CCSDS_OMM_VERS = 2.0
CREATION_DATE  = 
ORIGINATOR     = 

OBJECT_NAME    = ALOS (DAICHI)
OBJECT_ID      = 2006-002A
CENTER_NAME    = EARTH
REF_FRAME      = TEME
TIME_SYSTEM    = UTC
MEAN_ELEMENT_THEORY = SGP/SGP4

EPOCH          = 2026-03-23T07:44:09.252384
MEAN_MOTION    = 14.69850614
ECCENTRICITY   = .0000708
INCLINATION    = 98.1241
RA_OF_ASC_NODE = 38.2116
ARG_OF_PERICENTER = 93.7535
MEAN_ANOMALY   = 266.3751

EPHEMERIS_TYPE = 0
CLASSIFICATION_TYPE = U
NORAD_CAT_ID   = 28931
ELEMENT_SET_NO = 999
REV_AT_EPOCH   = 7548
BSTAR          = .24465E-3
MEAN_MOTION_DOT = .1413E-4
MEAN_MOTION_DDOT = 0

